NORAD_CAT_ID,OBJECT_NAME,OBJECT_TYPE,EPOCH,MEAN_MOTION,ECCENTRICITY,INCLINATION,RA_OF_ASC_NODE,ARG_OF_PERICENTER,MEAN_ANOMALY,BSTAR,MEAN_MOTION_DOT,MEAN_MOTION_DDOT,TLE_LINE0,TLE_LINE1,TLE_LINE2,SEMIMAJOR_AXIS,PERIOD,APOGEE,PERIGEE,DECAYED
51461.0,STARLINK-3181,PAYLOAD,2024-01-14 19:48:03,15.08861304,0.0001198,53.2154,202.5149,63.5376,296.5739,0.00029847,4.468e-05,0.0,0 STARLINK-3181,1 51461U 22010F   24014.82503912  .00004468  00000-0  29847-3 0  9998,2 51461  53.2154 202.5149 0001198  63.5376 296.5739 15.08861304108333,6917.815,95.436,540.509,538.852,0.0
51461.0,STARLINK-3181,PAYLOAD,2024-01-15 11:41:54,15.08854686,0.0001358,53.2162,199.5478,52.6189,307.4927,0.0001817,2.606e-05,0.0,0 STARLINK-3181,1 51461U 22010F   24015.48743661  .00002606  00000-0  18170-3 0  9997,2 51461  53.2162 199.5478 0001358  52.6189 307.4927 15.08854686108438,6917.836,95.437,540.64,538.761,0.0
51461.0,STARLINK-3181,PAYLOAD,2024-01-15 18:03:27,15.08850755,0.0001216,53.2152,198.3532,61.682,298.4295,9.4568e-06,-1.37e-06,0.0,0 STARLINK-3181,1 51461U 22010F   24015.75239655 -.00000137  00000-0  94568-5 0  9995,2 51461  53.2152 198.3532 0001216  61.6820 298.4295 15.08850755108979,6917.848,95.437,540.554,538.871,0.0
51461.0,STARLINK-3181,PAYLOAD,2024-01-15 19:38:50,15.08851266,0.0001214,53.2153,198.0555,64.0892,296.0225,1.2277e-05,-9.2e-07,0.0,0 STARLINK-3181,1 51461U 22010F   24015.81863552 -.00000092  00000-0  12277-4 0  9997,2 51461  53.2153 198.0555 0001214  64.0892 296.0225 15.08851266108487,6917.846,95.437,540.551,538.871,0.0
51461.0,STARLINK-3181,PAYLOAD,2024-01-16 11:32:41,15.08843273,0.0001334,53.2156,195.0834,65.0106,295.1024,-0.00013986,-2.513e-05,0.0,0 STARLINK-3181,1 51461U 22010F   24016.48103796 -.00002513  00000-0 -13986-3 0  9996,2 51461  53.2156 195.0834 0001334  65.0106 295.1024 15.08843273109082,6917.87,95.437,540.658,538.813,0.0
51461.0,STARLINK-3181,PAYLOAD,2024-01-16 13:08:05,15.08848931,0.0001656,53.216,194.7891,52.6233,307.491,-5.3083e-05,-1.133e-05,0.0,0 STARLINK-3181,1 51461U 22010F   24016.54728098 -.00001133  00000-0 -53083-4 0  9991,2 51461  53.2160 194.7891 0001656  52.6233 307.4910 15.08848931108598,6917.853,95.437,540.864,538.572,0.0
51461.0,STARLINK-3181,PAYLOAD,2024-01-16 19:29:37,15.08844855,0.0001183,53.2168,193.5965,63.9989,296.1125,-9.0086e-05,-1.721e-05,0.0,0 STARLINK-3181,1 51461U 22010F   24016.81224203 -.00001721  00000-0 -90086-4 0  9997,2 51461  53.2168 193.5965 0001183  63.9989 296.1125 15.08844855108631,6917.866,95.437,540.549,538.912,0.0
51461.0,STARLINK-3181,PAYLOAD,2024-01-17 17:45:01,15.08842453,9.69e-05,53.2169,189.4327,69.0586,291.051,1.349e-05,-7.3e-07,0.0,0 STARLINK-3181,1 51461U 22010F   24017.73959916 -.00000073  00000-0  13490-4 0  9997,2 51461  53.2169 189.4327 0000969  69.0586 291.0510 15.08842453109274,6917.873,95.437,540.408,539.068,0.0
51461.0,STARLINK-3181,PAYLOAD,2024-01-18 14:25:02,15.08841187,0.0001112,53.2169,185.5675,76.6401,283.4715,0.00011407,1.528e-05,0.0,0 STARLINK-3181,1 51461U 22010F   24018.60071785  .00001528  00000-0  11407-3 0  9993,2 51461  53.2169 185.5675 0001112  76.6401 283.4715 15.08841187108902,6917.877,95.437,540.511,538.972,0.0
51461.0,STARLINK-3181,PAYLOAD,2024-01-18 20:46:34,15.08846071,0.0001106,53.2167,184.3771,80.9923,279.1195,0.00014685,2.05e-05,0.0,0 STARLINK-3181,1 51461U 22010F   24018.86567346  .00002050  00000-0  14685-3 0  9996,2 51461  53.2167 184.3771 0001106  80.9923 279.1195 15.08846071108949,6917.862,95.437,540.492,538.962,0.0
51461.0,STARLINK-3181,PAYLOAD,2024-01-19 11:05:02,15.08838016,0.0001111,53.2159,181.6982,109.2732,250.8381,8.8117e-05,1.115e-05,0.0,0 STARLINK-3181,1 51461U 22010F   24019.46183868  .00001115  00000-0  88117-4 0  9999,2 51461  53.2159 181.6982 0001111 109.2732 250.8381 15.08838016109532,6917.886,95.438,540.52,538.983,0.0
51461.0,STARLINK-3181,PAYLOAD,2024-01-19 14:15:48,15.08843411,0.0001148,53.2158,181.1034,110.8589,249.2526,4.3385e-05,4.03e-06,0.0,0 STARLINK-3181,1 51461U 22010F   24019.59431666  .00000403  00000-0  43385-4 0  9992,2 51461  53.2158 181.1034 0001148 110.8589 249.2526 15.08843411109057,6917.87,95.437,540.529,538.941,0.0
51461.0,STARLINK-3181,PAYLOAD,2024-01-19 17:26:35,15.08843932,0.0001157,53.2169,180.5093,101.9931,258.1191,5.9198e-05,6.55e-06,0.0,0 STARLINK-3181,1 51461U 22010F   24019.72679589  .00000655  00000-0  59198-4 0  9993,2 51461  53.2169 180.5093 0001157 101.9931 258.1191 15.08843932109076,6917.868,95.437,540.534,538.933,0.0
51461.0,STARLINK-3181,PAYLOAD,2024-01-20 14:06:37,15.08829772,0.000138,53.217,176.6434,107.0472,253.0671,-7.544e-05,-1.488e-05,0.0,0 STARLINK-3181,1 51461U 22010F   24020.58793300 -.00001488  00000-0 -75440-4 0  9992,2 51461  53.2170 176.6434 0001380 107.0472 253.0671 15.08829772109206,6917.912,95.438,540.731,538.822,0.0
51461.0,STARLINK-3181,PAYLOAD,2024-01-20 15:42:00,15.08830069,0.00012,53.2167,176.3459,94.5416,265.5714,-8.7369e-05,-1.678e-05,0.0,0 STARLINK-3181,1 51461U 22010F   24020.65417369 -.00001678  00000-0 -87369-4 0  9992,2 51461  53.2167 176.3459 0001200  94.5416 265.5714 15.08830069109718,6917.911,95.438,540.606,538.946,0.0
51461.0,STARLINK-3181,PAYLOAD,2024-01-21 12:22:01,15.08833887,0.000153,53.2162,172.4826,65.9256,294.1896,2.6994e-05,1.42e-06,0.0,0 STARLINK-3181,1 51461U 22010F   24021.51529266  .00000142  00000-0  26994-4 0  9998,2 51461  53.2162 172.4826 0001530  65.9256 294.1896 15.08833887109842,6917.899,95.438,540.823,538.706,0.0
51461.0,STARLINK-3181,PAYLOAD,2024-01-21 15:32:47,15.08840151,0.0001642,53.2176,171.8907,50.9696,309.1442,8.2192e-05,1.02e-05,0.0,0 STARLINK-3181,1 51461U 22010F   24021.64776730  .00001020  00000-0  82192-4 0  9990,2 51461  53.2176 171.8907 0001642  50.9696 309.1442 15.08840151109864,6917.88,95.438,540.881,538.609,0.0
51461.0,STARLINK-3181,PAYLOAD,2024-01-22 09:02:02,15.08801718,0.0001558,53.217,168.6185,60.6339,299.4809,0.00063265,9.784e-05,0.0,0 STARLINK-3181,1 51461U 22010F   24022.37641216  .00009784  00000-0  63265-3 0  9995,2 51461  53.2170 168.6185 0001558  60.6339 299.4809 15.08801718109974,6917.997,95.44,540.94,538.785,0.0
51461.0,STARLINK-3181,PAYLOAD,2024-01-22 16:58:57,15.08836996,0.0001414,53.2168,167.131,64.223,295.8908,0.00027595,4.106e-05,0.0,0 STARLINK-3181,1 51461U 22010F   24022.70760814  .00004106  00000-0  27595-3 0  9997,2 51461  53.2168 167.1310 0001414  64.2230 295.8908 15.08836996110020,6917.89,95.438,540.733,538.776,0.0
51461.0,STARLINK-3181,PAYLOAD,2024-01-23 16:49:43,15.08853648,0.0001852,53.218,162.67,54.3498,305.7666,7.0342e-05,8.32e-06,0.0,0 STARLINK-3181,1 51461U 22010F   24023.70120246  .00000832  00000-0  70342-4 0  9998,2 51461  53.2180 162.6700 0001852  54.3498 305.7666 15.08853648109673,6917.839,95.437,540.985,538.422,0.0
51461.0,STARLINK-3181,PAYLOAD,2024-01-24 13:29:45,15.08840738,0.000141,53.2173,158.8044,77.2907,282.8243,-3.6964e-05,-8.76e-06,0.0,0 STARLINK-3181,1 51461U 22010F   24024.56233107 -.00000876  00000-0 -36964-4 0  9996,2 51461  53.2173 158.8044 0001410  77.2907 282.8243 15.08840738109809,6917.878,95.438,540.719,538.768,0.0
51461.0,STARLINK-3181,PAYLOAD,2024-01-24 15:05:08,15.08841135,0.0001552,53.2174,158.5071,70.2753,289.8406,-3.2619e-05,-8.07e-06,0.0,0 STARLINK-3181,1 51461U 22010F   24024.62857118 -.00000807  00000-0 -32619-4 0  9994,2 51461  53.2174 158.5071 0001552  70.2753 289.8406 15.08841135110314,6917.877,95.437,540.816,538.668,0.0
51461.0,STARLINK-3181,PAYLOAD,2024-01-25 13:20:32,15.08856597,0.000118,53.2172,154.3409,87.73,272.3827,-0.00021156,-3.655e-05,0.0,0 STARLINK-3181,1 51461U 22010F   24025.55592719 -.00003655  00000-0 -21156-3 0  9997,2 51461  53.2172 154.3409 0001180  87.7300 272.3827 15.08856597109959,6917.83,95.437,540.511,538.878,0.0
51461.0,STARLINK-3181,PAYLOAD,2024-01-25 14:55:55,15.08857662,0.0001326,53.2174,154.0437,79.5767,280.5374,-0.00015934,-2.824e-05,0.0,0 STARLINK-3181,1 51461U 22010F   24025.62216511 -.00002824  00000-0 -15934-3 0  9992,2 51461  53.2174 154.0437 0001326  79.5767 280.5374 15.08857662110467,6917.826,95.436,540.609,538.774,0.0
51461.0,STARLINK-3181,PAYLOAD,2024-01-26 11:35:55,15.08842432,0.0001511,53.2173,150.1804,58.7196,301.3944,0.0001373,1.898e-05,0.0,0 STARLINK-3181,1 51461U 22010F   24026.48328701  .00001898  00000-0  13730-3 0  9992,2 51461  53.2173 150.1804 0001511  58.7196 301.3944 15.08842432110590,6917.873,95.437,540.783,538.693,0.0
51461.0,STARLINK-3181,PAYLOAD,2024-01-26 14:46:42,15.08844074,0.0001614,53.2172,149.5853,60.6155,299.4998,0.00015315,2.15e-05,0.0,0 STARLINK-3181,1 51461U 22010F   24026.61576566  .00002150  00000-0  15315-3 0  9994,2 51461  53.2172 149.5853 0001614  60.6155 299.4998 15.08844074110114,6917.868,95.437,540.849,538.616,0.0
51461.0,STARLINK-3181,PAYLOAD,2024-01-27 13:02:06,15.08840803,0.0001496,53.218,145.4177,93.8281,266.2882,1.3976e-05,-6.6e-07,0.0,0 STARLINK-3181,1 51461U 22010F   24027.54313167 -.00000066  00000-0  13976-4 0  9990,2 51461  53.2180 145.4177 0001496  93.8281 266.2882 15.08840803110753,6917.878,95.438,540.778,538.708,0.0
51461.0,STARLINK-3181,PAYLOAD,2024-01-27 14:37:29,15.08839786,0.0001385,53.2175,145.1237,86.6337,273.4814,2.2071e-05,6.3e-07,0.0,0 STARLINK-3181,1 51461U 22010F   24027.60937258  .00000063  00000-0  22071-4 0  9992,2 51461  53.2175 145.1237 0001385  86.6337 273.4814 15.08839786110269,6917.881,95.438,540.704,538.788,0.0
51461.0,STARLINK-3181,PAYLOAD,2024-01-27 17:48:16,15.08839994,0.0001356,53.2174,144.5287,89.4546,270.6601,2.2177e-05,6.5e-07,0.0,0 STARLINK-3181,1 51461U 22010F   24027.74185221  .00000065  00000-0  22177-4 0  9991,2 51461  53.2174 144.5287 0001356  89.4546 270.6601 15.08839994110283,6917.88,95.438,540.683,538.807,0.0
51461.0,STARLINK-3181,PAYLOAD,2024-01-28 11:17:29,15.08852292,9.77e-05,53.2166,141.2645,74.7847,285.3253,-3.3086e-05,-8.14e-06,0.0,0 STARLINK-3181,1 51461U 22010F   24028.47047928 -.00000814  00000-0 -33086-4 0  9998,2 51461  53.2166 141.2645 0000977  74.7847 285.3253 15.08852292110894,6917.843,95.437,540.384,539.032,0.0
